TDRS 3                  
1 19548U 88091B   20121.18288530 -.00000299  00000-0  00000+0 0  9994
2 19548  14.2023 357.8512 0038365 324.9635 272.4321  1.00280993102915
HST                     
1 20580U 90037B   20120.90205311  .00000484  00000-0  18463-4 0  9992
2 20580  28.4696 280.7861 0002554 290.6923 204.6943 15.09378526448719
TDRS 5                  
1 21639U 91054B   20121.36055517  .00000085  00000-0  00000+0 0  9990
2 21639  14.3048  11.1353 0029405   5.5310 164.2681  1.00268670105252
TDRS 6                  
1 22314U 93003B   20121.80087785 -.00000294  00000-0  00000+0 0  9991
2 22314  14.0282  14.2617 0008549  54.2717  33.0022  1.00278780 99937
TDRS 7                  
1 23613U 95035B   20120.83092646 -.00000201  00000-0  00000+0 0  9993
2 23613  14.2071   4.9613 0032987  27.1054 210.1589  1.00273629 90693
ISS (ZARYA)             
1 25544U 98067A   20122.06472222  .00001622  00000-0  37155-4 0  9998
2 25544  51.6456 221.6932 0001331 211.3120 147.6432 15.49337139224709
LANDSAT 7               
1 25682U 99020A   20121.89591442  .00000018  00000-0  13677-4 0  9998
2 25682  98.0849 185.9644 0001444  71.3627 288.7724 14.57175600119318
TERRA                   
1 25994U 99068A   20121.92582511  .00000046  00000-0  20221-4 0  9991
2 25994  98.2132 196.8662 0001128 110.5762 249.5535 14.57127142 83398
TDRS 8                  
1 26388U 00034A   20120.83175682 -.00000230  00000-0  00000-0 0  9995
2 26388   9.1584  47.8795 0019800 319.8718 238.9327  1.00279172 72722
TIMED                   
1 26998U 01055B   20121.13071671  .00000107  00000-0  15628-4 0  9991
2 26998  74.0745  29.3938 0000858 203.4622 156.6520 14.88185942997366
TDRS 9                  
1 27389U 02011A   20121.80663778 -.00000285  00000-0  00000+0 0  9999
2 27389   7.3952  67.8591 0026079 284.3387  94.9021  1.00264431 67999
AQUA                    
1 27424U 02022A   20121.82437858  .00000100  00000-0  32323-4 0  9994
2 27424  98.2061  63.1482 0002542 108.0649 337.4595 14.57118903956984
TDRS 10                 
1 27566U 02055A   20121.73610340  .00000091  00000-0  00000+0 0  9997
2 27566   6.8264  53.8424 0009685 308.3567 310.7214  1.00272949 63786
SORCE                   
1 27651U 03004A   20121.75683228  .00000047  00000-0  19135-4 0  9999
2 27651  39.9953 236.0164 0022394  40.9891 319.2576 14.89107372937121
AURA                    
1 28376U 04026A   20121.19555791  .00000106  00000-0  33499-4 0  9995
2 28376  98.2054  64.6855 0001576  84.0884 276.0494 14.57109857839897
SWIFT                   
1 28485U 04047A   20121.83336170  .00000877  00000-0  29438-4 0  9991
2 28485  20.5576 358.2409 0011170 174.1632 185.8933 15.04600107846312
THEMIS A                
1 30580U 07004A   20120.70721345 -.00000339  00000-0  00000+0 0  9996
2 30580  14.0297  51.0787 8415076  21.0828 358.5982  0.87837996 46277
THEMIS D                
1 30797U 07004D   20120.72993760 -.00000381  00000-0 -21981-1 0  9991
2 30797  12.6245  31.0476 8373701  42.8244 357.3142  0.87904832 45805
THEMIS E                
1 30798U 07004E   20120.76325428 -.00000311  00000-0  00000+0 0  9995
2 30798  11.5784  41.6206 8374358  34.9371 357.7736  0.87844089 46230
AIM                     
1 31304U 07015A   20121.57431462  .00000706  00000-0  43367-4 0  9992
2 31304  97.9134   2.5534 0005708 147.5424 212.6158 15.13539648713441
FGRST (GLAST)           
1 33053U 08029A   20121.90308960  .00000463  00000-0  96604-5 0  9997
2 33053  25.5830  64.1856 0012401 175.6651 184.3993 15.11331573656136
WISE                    
1 36119U 09071A   20121.73080683  .00000738  00000-0  27935-4 0  9996
2 36119  97.3334 158.6207 0002741 156.1598 203.9770 15.30049471576526
TDRS 11                 
1 39070U 13004A   20121.31232870  .00000074  00000-0  00000-0 0  9990
2 39070   3.9033 331.9174 0005885  40.9390 143.8559  1.00273388 26531
TDRS 12                 
1 39504U 14004A   20121.07688205 -.00000277  00000-0  00000+0 0  9998
2 39504   4.7166 338.1504 0002342 120.1005 106.5881  1.00263155 22995
GPM-CORE                
1 39574U 14009C   20121.12713103  .00006276  00000-0  93764-4 0  9990
2 39574  65.0072 315.9918 0011136 284.3141  75.6769 15.55954830350521
MMS 1                   
1 40482U 15011A   20111.32331903 -.00000001  00000-0  00000+0 0  9996
2 40482  26.7581 120.3298 8686940  19.8710 219.2124  0.28580409 11044
MMS 2                   
1 40483U 15011B   20110.08333333 -.00000059  00000-0  00000+0 0  9991
2 40483  26.7644 120.3695 8692042  19.8261  91.7200  0.28585787 11027
MMS 3                   
1 40484U 15011C   20110.08333333 -.00000059  00000-0  00000+0 0  9992
2 40484  26.7831 120.3608 8694015  19.8320  91.6985  0.28587107 11025
MMS 4                   
1 40485U 15011D   20110.53798178 -.00000033  00000-0  00000+0 0  9997
2 40485  26.7560 120.3506 8688751  19.8407 138.4632  0.28592214 11022
TDRS 13                 
1 42915U 17047A   20120.82838069 -.00000105  00000-0  00000-0 0  9996
2 42915   5.6514 330.2034 0017209  88.1115  86.7864  1.00272201  9892
JPSS-1                  
1 43013U 17073A   20121.00327961  .00000013  00000-0  26733-4 0  9992
2 43013  98.7149  59.7088 0001491  95.2442 264.8904 14.19552552126785
